{
  "type": "FeatureCollection",
  "features": [
    {
      "type": "Feature",
      "properties": {
        "norad_id": 44334,
        "name": "EUTELSAT 7C",
        "group": "eutelsat",
        "lat": 0.01400159790145876,
        "lon": -155.9422693854274,
        "alt_km": 35775.52515418902,
        "timestamp": "2025-12-12T07:43:20.175145+00:00",
        "meta_object_name": "EUTELSAT 7C",
        "meta_object_id": "2019-034B",
        "meta_epoch": "2025-12-11T22:06:18.182592",
        "meta_mean_motion": 1.00271492,
        "meta_eccentricity": 0.00032671,
        "meta_inclination": 0.0722,
        "meta_ra_of_asc_node": 178.2592,
        "meta_arg_of_pericenter": 65.5701,
        "meta_mean_anomaly": 175.605,
        "meta_ephemeris_type": 0,
        "meta_classification_type": "U",
        "meta_norad_cat_id": 44334,
        "meta_element_set_no": 999,
        "meta_rev_at_epoch": 495,
        "meta_bstar": 0,
        "meta_mean_motion_dot": 5.7e-07,
        "meta_mean_motion_ddot": 0,
        "tle_line1": "1 44334U 19034B   25345.92104378  .00000057  00000+0  00000+0 0  9998",
        "tle_line2": "2 44334   0.0722 178.2592 0003267  65.5701 175.6050  1.00271492  4955"
      },
      "geometry": {
        "type": "Point",
        "coordinates": [
          -155.9422693854274,
          0.01400159790145876
        ]
      }
    },
    {
      "type": "Feature",
      "properties": {
        "norad_id": 44624,
        "name": "EUTELSAT 5 WEST B",
        "group": "eutelsat",
        "lat": -0.036131207671712455,
        "lon": -167.93956931037798,
        "alt_km": 35781.08932392326,
        "timestamp": "2025-12-12T07:43:20.175157+00:00",
        "meta_object_name": "EUTELSAT 5 WEST B",
        "meta_object_id": "2019-067A",
        "meta_epoch": "2025-12-11T22:02:56.005728",
        "meta_mean_motion": 1.00271734,
        "meta_eccentricity": 0.00033829,
        "meta_inclination": 0.0624,
        "meta_ra_of_asc_node": 347.7263,
        "meta_arg_of_pericenter": 273.9172,
        "meta_mean_anomaly": 144.961,
        "meta_ephemeris_type": 0,
        "meta_classification_type": "U",
        "meta_norad_cat_id": 44624,
        "meta_element_set_no": 999,
        "meta_rev_at_epoch": 2255,
        "meta_bstar": 0,
        "meta_mean_motion_dot": -3.4e-07,
        "meta_mean_motion_ddot": 0,
        "tle_line1": "1 44624U 19067A   25345.91870377 -.00000034  00000+0  00000+0 0  9990",
        "tle_line2": "2 44624   0.0624 347.7263 0003382 273.9172 144.9610  1.00271734 22557"
      },
      "geometry": {
        "type": "Point",
        "coordinates": [
          -167.93956931037798,
          -0.036131207671712455
        ]
      }
    },
    {
      "type": "Feature",
      "properties": {
        "norad_id": 45027,
        "name": "EUTELSAT KONNECT",
        "group": "eutelsat",
        "lat": 0.051186909212683,
        "lon": -155.73183049535737,
        "alt_km": 35785.667807704434,
        "timestamp": "2025-12-12T07:43:20.175169+00:00",
        "meta_object_name": "EUTELSAT KONNECT",
        "meta_object_id": "2020-005B",
        "meta_epoch": "2025-12-11T22:06:18.182592",
        "meta_mean_motion": 1.00269952,
        "meta_eccentricity": 0.00016038,
        "meta_inclination": 0.0711,
        "meta_ra_of_asc_node": 96.1171,
        "meta_arg_of_pericenter": 190.7654,
        "meta_mean_anomaly": 132.7585,
        "meta_ephemeris_type": 0,
        "meta_classification_type": "U",
        "meta_norad_cat_id": 45027,
        "meta_element_set_no": 999,
        "meta_rev_at_epoch": 2245,
        "meta_bstar": 0,
        "meta_mean_motion_dot": 5.8e-07,
        "meta_mean_motion_ddot": 0,
        "tle_line1": "1 45027U 20005B   25345.92104378  .00000058  00000+0  00000+0 0  9999",
        "tle_line2": "2 45027   0.0711  96.1171 0001603 190.7654 132.7585  1.00269952 22454"
      },
      "geometry": {
        "type": "Point",
        "coordinates": [
          -155.73183049535737,
          0.051186909212683
        ]
      }
    },
    {
      "type": "Feature",
      "properties": {
        "norad_id": 49056,
        "name": "EUTELSAT QUANTUM",
        "group": "eutelsat",
        "lat": -0.02420529496670624,
        "lon": -115.22224835873747,
        "alt_km": 35772.36262293018,
        "timestamp": "2025-12-12T07:43:20.175181+00:00",
        "meta_object_name": "EUTELSAT QUANTUM",
        "meta_object_id": "2021-069B",
        "meta_epoch": "2025-12-11T20:35:11.907744",
        "meta_mean_motion": 1.00272243,
        "meta_eccentricity": 0.00036556,
        "meta_inclination": 0.0202,
        "meta_ra_of_asc_node": 34.154,
        "meta_arg_of_pericenter": 239.6136,
        "meta_mean_anomaly": 163.5431,
        "meta_ephemeris_type": 0,
        "meta_classification_type": "U",
        "meta_norad_cat_id": 49056,
        "meta_element_set_no": 999,
        "meta_rev_at_epoch": 1604,
        "meta_bstar": 0,
        "meta_mean_motion_dot": 1.34e-06,
        "meta_mean_motion_ddot": 0,
        "tle_line1": "1 49056U 21069B   25345.85777671  .00000134  00000+0  00000+0 0  9995",
        "tle_line2": "2 49056   0.0202  34.1540 0003655 239.6136 163.5431  1.00272243 16041"
      },
      "geometry": {
        "type": "Point",
        "coordinates": [
          -115.22224835873747,
          -0.02420529496670624
        ]
      }
    },
    {
      "type": "Feature",
      "properties": {
        "norad_id": 53765,
        "name": "EUTELSAT KONNECT VHTS",
        "group": "eutelsat",
        "lat": 0.047234169541440614,
        "lon": -160.19833475777764,
        "alt_km": 35777.53100496796,
        "timestamp": "2025-12-12T07:43:20.175207+00:00",
        "meta_object_name": "EUTELSAT KONNECT VHTS",
        "meta_object_id": "2022-110A",
        "meta_epoch": "2025-12-11T22:05:03.302304",
        "meta_mean_motion": 1.00272677,
        "meta_eccentricity": 0.00025441,
        "meta_inclination": 0.0635,
        "meta_ra_of_asc_node": 101.6051,
        "meta_arg_of_pericenter": 137.8097,
        "meta_mean_anomaly": 175.4434,
        "meta_ephemeris_type": 0,
        "meta_classification_type": "U",
        "meta_norad_cat_id": 53765,
        "meta_element_set_no": 999,
        "meta_rev_at_epoch": 494,
        "meta_bstar": 0,
        "meta_mean_motion_dot": 2.6e-07,
        "meta_mean_motion_ddot": 0,
        "tle_line1": "1 53765U 22110A   25345.92017711  .00000026  00000+0  00000+0 0  9995",
        "tle_line2": "2 53765   0.0635 101.6051 0002544 137.8097 175.4434  1.00272677  4943"
      },
      "geometry": {
        "type": "Point",
        "coordinates": [
          -160.19833475777764,
          0.047234169541440614
        ]
      }
    },
    {
      "type": "Feature",
      "properties": {
        "norad_id": 54048,
        "name": "EUTELSAT HOTBIRD 13F",
        "group": "eutelsat",
        "lat": -0.06106013658974303,
        "lon": -149.91318332933554,
        "alt_km": 35794.70184606356,
        "timestamp": "2025-12-12T07:43:20.175221+00:00",
        "meta_object_name": "EUTELSAT HOTBIRD 13F",
        "meta_object_id": "2022-134A",
        "meta_epoch": "2025-12-11T23:36:58.233312",
        "meta_mean_motion": 1.00269374,
        "meta_eccentricity": 0.00022408,
        "meta_inclination": 0.048,
        "meta_ra_of_asc_node": 293.1086,
        "meta_arg_of_pericenter": 64.7327,
        "meta_mean_anomaly": 90.3432,
        "meta_ephemeris_type": 0,
        "meta_classification_type": "U",
        "meta_norad_cat_id": 54048,
        "meta_element_set_no": 999,
        "meta_rev_at_epoch": 1150,
        "meta_bstar": 0,
        "meta_mean_motion_dot": 9.6e-07,
        "meta_mean_motion_ddot": 0,
        "tle_line1": "1 54048U 22134A   25345.98400733  .00000096  00000+0  00000+0 0  9999",
        "tle_line2": "2 54048   0.0480 293.1086 0002240  64.7327  90.3432  1.00269374 11501"
      },
      "geometry": {
        "type": "Point",
        "coordinates": [
          -149.91318332933554,
          -0.06106013658974303
        ]
      }
    },
    {
      "type": "Feature",
      "properties": {
        "norad_id": 54225,
        "name": "EUTELSAT HOTBIRD 13G",
        "group": "eutelsat",
        "lat": -0.03307848313633638,
        "lon": -149.90365775045555,
        "alt_km": 35779.45592340391,
        "timestamp": "2025-12-12T07:43:20.175233+00:00",
        "meta_object_name": "EUTELSAT HOTBIRD 13G",
        "meta_object_id": "2022-146A",
        "meta_epoch": "2025-12-11T22:08:38.732928",
        "meta_mean_motion": 1.00271017,
        "meta_eccentricity": 0.00018323,
        "meta_inclination": 0.0482,
        "meta_ra_of_asc_node": 234.5148,
        "meta_arg_of_pericenter": 307.6546,
        "meta_mean_anomaly": 243.8576,
        "meta_ephemeris_type": 0,
        "meta_classification_type": "U",
        "meta_norad_cat_id": 54225,
        "meta_element_set_no": 999,
        "meta_rev_at_epoch": 558,
        "meta_bstar": 0,
        "meta_mean_motion_dot": 9.6e-07,
        "meta_mean_motion_ddot": 0,
        "tle_line1": "1 54225U 22146A   25345.92267052  .00000096  00000+0  00000+0 0  9998",
        "tle_line2": "2 54225   0.0482 234.5148 0001832 307.6546 243.8576  1.00271017  5588"
      },
      "geometry": {
        "type": "Point",
        "coordinates": [
          -149.90365775045555,
          -0.03307848313633638
        ]
      }
    }
  ]
}